{
  "type": "FeatureCollection",
  "features": [
    {
      "type": "Feature",
      "properties": {
        "norad_id": 24876,
        "name": "GPS BIIR-2  (PRN 13)",
        "group": "gnss",
        "lat": 35.262578828762024,
        "lon": 134.73236642152617,
        "alt_km": 19927.683139590845,
        "timestamp": "2025-12-05T19:30:25.807177+00:00",
        "meta_object_name": "GPS BIIR-2  (PRN 13)",
        "meta_object_id": "1997-035A",
        "meta_epoch": "2025-12-05T06:05:41.226432",
        "meta_mean_motion": 2.00563469,
        "meta_eccentricity": 0.00966975,
        "meta_inclination": 55.8916,
        "meta_ra_of_asc_node": 106.1617,
        "meta_arg_of_pericenter": 57.0234,
        "meta_mean_anomaly": 303.8648,
        "meta_ephemeris_type": 0,
        "meta_classification_type": "U",
        "meta_norad_cat_id": 24876,
        "meta_element_set_no": 999,
        "meta_rev_at_epoch": 20806,
        "meta_bstar": 0,
        "meta_mean_motion_dot": 4e-08,
        "meta_mean_motion_ddot": 0,
        "tle_line1": "1 24876U 97035A   25339.25394938  .00000004  00000+0  00000+0 0  9998",
        "tle_line2": "2 24876  55.8916 106.1617 0096697  57.0234 303.8648  2.00563469208066"
      },
      "geometry": {
        "type": "Point",
        "coordinates": [
          134.73236642152617,
          35.262578828762024
        ]
      }
    },
    {
      "type": "Feature",
      "properties": {
        "norad_id": 26360,
        "name": "GPS BIIR-4  (PRN 20)",
        "group": "gnss",
        "lat": 34.84653835701334,
        "lon": 178.0125279286855,
        "alt_km": 20204.698738174622,
        "timestamp": "2025-12-05T19:30:25.807225+00:00",
        "meta_object_name": "GPS BIIR-4  (PRN 20)",
        "meta_object_id": "2000-025A",
        "meta_epoch": "2025-12-05T03:00:42.740352",
        "meta_mean_motion": 2.00568182,
        "meta_eccentricity": 0.00388084,
        "meta_inclination": 55.0407,
        "meta_ra_of_asc_node": 27.146,
        "meta_arg_of_pericenter": 241.2501,
        "meta_mean_anomaly": 118.7163,
        "meta_ephemeris_type": 0,
        "meta_classification_type": "U",
        "meta_norad_cat_id": 26360,
        "meta_element_set_no": 999,
        "meta_rev_at_epoch": 18738,
        "meta_bstar": 0,
        "meta_mean_motion_dot": -7.4e-07,
        "meta_mean_motion_ddot": 0,
        "tle_line1": "1 26360U 00025A   25339.12549468 -.00000074  00000+0  00000+0 0  9995",
        "tle_line2": "2 26360  55.0407  27.1460 0038808 241.2501 118.7163  2.00568182187388"
      },
      "geometry": {
        "type": "Point",
        "coordinates": [
          178.0125279286855,
          34.84653835701334
        ]
      }
    },
    {
      "type": "Feature",
      "properties": {
        "norad_id": 26407,
        "name": "GPS BIIR-5  (PRN 22)",
        "group": "gnss",
        "lat": -18.99836310444163,
        "lon": -151.15023041912292,
        "alt_km": 19907.911877641724,
        "timestamp": "2025-12-05T19:30:25.807242+00:00",
        "meta_object_name": "GPS BIIR-5  (PRN 22)",
        "meta_object_id": "2000-040A",
        "meta_epoch": "2025-12-05T02:25:59.416032",
        "meta_mean_motion": 2.00567737,
        "meta_eccentricity": 0.01264283,
        "meta_inclination": 54.8927,
        "meta_ra_of_asc_node": 222.8729,
        "meta_arg_of_pericenter": 301.6688,
        "meta_mean_anomaly": 240.4646,
        "meta_ephemeris_type": 0,
        "meta_classification_type": "U",
        "meta_norad_cat_id": 26407,
        "meta_element_set_no": 999,
        "meta_rev_at_epoch": 18605,
        "meta_bstar": 0,
        "meta_mean_motion_dot": 5.6e-07,
        "meta_mean_motion_ddot": 0,
        "tle_line1": "1 26407U 00040A   25339.10138213  .00000056  00000+0  00000+0 0  9993",
        "tle_line2": "2 26407  54.8927 222.8729 0126428 301.6688 240.4646  2.00567737186056"
      },
      "geometry": {
        "type": "Point",
        "coordinates": [
          -151.15023041912292,
          -18.99836310444163
        ]
      }
    },
    {
      "type": "Feature",
      "properties": {
        "norad_id": 27663,
        "name": "GPS BIIR-8  (PRN 16)",
        "group": "gnss",
        "lat": 48.864801030970305,
        "lon": -10.817993310086386,
        "alt_km": 19983.870638546905,
        "timestamp": "2025-12-05T19:30:25.807258+00:00",
        "meta_object_name": "GPS BIIR-8  (PRN 16)",
        "meta_object_id": "2003-005A",
        "meta_epoch": "2025-12-03T11:06:59.696352",
        "meta_mean_motion": 2.00571298,
        "meta_eccentricity": 0.0147085,
        "meta_inclination": 54.9258,
        "meta_ra_of_asc_node": 222.7473,
        "meta_arg_of_pericenter": 51.6706,
        "meta_mean_anomaly": 163.3527,
        "meta_ephemeris_type": 0,
        "meta_classification_type": "U",
        "meta_norad_cat_id": 27663,
        "meta_element_set_no": 999,
        "meta_rev_at_epoch": 16738,
        "meta_bstar": 0,
        "meta_mean_motion_dot": 6.1e-07,
        "meta_mean_motion_ddot": 0,
        "tle_line1": "1 27663U 03005A   25337.46319093  .00000061  00000+0  00000+0 0  9992",
        "tle_line2": "2 27663  54.9258 222.7473 0147085  51.6706 163.3527  2.00571298167382"
      },
      "geometry": {
        "type": "Point",
        "coordinates": [
          -10.817993310086386,
          48.864801030970305
        ]
      }
    },
    {
      "type": "Feature",
      "properties": {
        "norad_id": 28190,
        "name": "GPS BIIR-11 (PRN 19)",
        "group": "gnss",
        "lat": -54.96602170867094,
        "lon": -163.28121700419345,
        "alt_km": 20257.01430708947,
        "timestamp": "2025-12-05T19:30:25.807273+00:00",
        "meta_object_name": "GPS BIIR-11 (PRN 19)",
        "meta_object_id": "2004-009A",
        "meta_epoch": "2025-12-04T10:34:11.811072",
        "meta_mean_motion": 2.00560931,
        "meta_eccentricity": 0.0108199,
        "meta_inclination": 54.9938,
        "meta_ra_of_asc_node": 283.5535,
        "meta_arg_of_pericenter": 167.4954,
        "meta_mean_anomaly": 192.2151,
        "meta_ephemeris_type": 0,
        "meta_classification_type": "U",
        "meta_norad_cat_id": 28190,
        "meta_element_set_no": 999,
        "meta_rev_at_epoch": 15903,
        "meta_bstar": 0,
        "meta_mean_motion_dot": -4.2e-07,
        "meta_mean_motion_ddot": 0,
        "tle_line1": "1 28190U 04009A   25338.44041448 -.00000042  00000+0  00000+0 0  9998",
        "tle_line2": "2 28190  54.9938 283.5535 0108199 167.4954 192.2151  2.00560931159030"
      },
      "geometry": {
        "type": "Point",
        "coordinates": [
          -163.28121700419345,
          -54.96602170867094
        ]
      }
    },
    {
      "type": "Feature",
      "properties": {
        "norad_id": 28474,
        "name": "GPS BIIR-13 (PRN 02)",
        "group": "gnss",
        "lat": -23.250072787757016,
        "lon": -44.67984930931623,
        "alt_km": 19764.79321749128,
        "timestamp": "2025-12-05T19:30:25.807286+00:00",
        "meta_object_name": "GPS BIIR-13 (PRN 02)",
        "meta_object_id": "2004-045A",
        "meta_epoch": "2025-12-04T09:39:02.075040",
        "meta_mean_motion": 2.00568937,
        "meta_eccentricity": 0.0170587,
        "meta_inclination": 55.2447,
        "meta_ra_of_asc_node": 332.7413,
        "meta_arg_of_pericenter": 308.8874,
        "meta_mean_anomaly": 83.0394,
        "meta_ephemeris_type": 0,
        "meta_classification_type": "U",
        "meta_norad_cat_id": 28474,
        "meta_element_set_no": 999,
        "meta_rev_at_epoch": 15452,
        "meta_bstar": 0,
        "meta_mean_motion_dot": -7.2e-07,
        "meta_mean_motion_ddot": 0,
        "tle_line1": "1 28474U 04045A   25338.40210735 -.00000072  00000+0  00000+0 0  9999",
        "tle_line2": "2 28474  55.2447 332.7413 0170587 308.8874  83.0394  2.00568937154527"
      },
      "geometry": {
        "type": "Point",
        "coordinates": [
          -44.67984930931623,
          -23.250072787757016
        ]
      }
    },
    {
      "type": "Feature",
      "properties": {
        "norad_id": 28874,
        "name": "GPS BIIRM-1 (PRN 17)",
        "group": "gnss",
        "lat": -50.84527569880747,
        "lon": -138.14736311473717,
        "alt_km": 19837.147298463686,
        "timestamp": "2025-12-05T19:30:25.807298+00:00",
        "meta_object_name": "GPS BIIRM-1 (PRN 17)",
        "meta_object_id": "2005-038A",
        "meta_epoch": "2025-12-02T16:12:27.400896",
        "meta_mean_motion": 2.00548806,
        "meta_eccentricity": 0.01328204,
        "meta_inclination": 55.0411,
        "meta_ra_of_asc_node": 281.1063,
        "meta_arg_of_pericenter": 293.4087,
        "meta_mean_anomaly": 250.3584,
        "meta_ephemeris_type": 0,
        "meta_classification_type": "U",
        "meta_norad_cat_id": 28874,
        "meta_element_set_no": 999,
        "meta_rev_at_epoch": 14789,
        "meta_bstar": 0,
        "meta_mean_motion_dot": -4.3e-07,
        "meta_mean_motion_ddot": 0,
        "tle_line1": "1 28874U 05038A   25336.67531714 -.00000043  00000+0  00000+0 0  9994",
        "tle_line2": "2 28874  55.0411 281.1063 0132820 293.4087 250.3584  2.00548806147896"
      },
      "geometry": {
        "type": "Point",
        "coordinates": [
          -138.14736311473717,
          -50.84527569880747
        ]
      }
    }
  ]
}